NUSAT-1 (FRESCO)        
1 41557U 16033B   22296.06496588  .00017889  00000+0  47723-3 0  9990
2 41557  97.3894  34.2515 0009055 279.9112 204.8220 15.38154212356974
BEESAT-4                
1 41619U 16040W   22296.07600533  .00025257  00000+0  74425-3 0  9992
2 41619  97.2020 343.4758 0008828  30.2799 329.8953 15.34976859340275
CAS-2T & KS-1Q          
1 41847U 16066G   22295.75471056  .00001406  00000+0  21986-3 0  9997
2 41847  98.5376   0.2191 0362932 188.8291 170.6400 14.38816019312655
NAYIF-1 (EO-88)         
1 42017U 17008BX  22295.75310219  .00031137  00000+0  79997-3 0  9996
2 42017  97.2554   0.2612 0005338 139.3773 220.7872 15.39225745316620
ZHUHAI-1 02 (CAS-4B)    
1 42759U 17034B   22296.58845281  .00005316  00000+0  30870-3 0  9999
2 42759  43.0182 345.9761 0009950  10.5951 142.9910 15.12915303295750
ZHUHAI-1 01 (CAS-4A)    
1 42761U 17034D   22296.61389354  .00005231  00000+0  30322-3 0  9998
2 42761  43.0197 344.5317 0009932  12.6620 124.3074 15.13004890295764
MAX VALIER SAT          
1 42778U 17036P   22296.09693362  .00014311  00000+0  50695-3 0  9991
2 42778  97.1924 332.8787 0008967 223.8610 136.1919 15.29178637296390
RADFXSAT (FOX-1B)       
1 43017U 17073E   22295.65890664  .00003980  00000+0  29579-3 0  9991
2 43017  97.6567 184.6047 0246688 130.6984 231.5950 14.82330649265954
FOX-1D (AO-92)          
1 43137U 18004AC  22295.71935135  .00014134  00000+0  45895-3 0  9991
2 43137  97.3589   9.8508 0005956 268.2780  91.7779 15.32031306265815
DIWATA-2B               
1 43678U 18084H   22296.11897535  .00000828  00000+0  86591-4 0  9999
2 43678  97.9890  71.0345 0008909 218.8749 141.1816 14.92405424216890
ES'HAIL 2               
1 43700U 18090A   22294.21368856  .00000149  00000+0  00000+0 0  9992
2 43700   0.0177 242.6988 0001136 328.2865 281.3892  1.00270393 14299
FOX-1CLIFF (AO-95)      
1 43770U 18099N   22296.41708861  .00002965  00000+0  26164-3 0  9997
2 43770  97.6086 359.3985 0013256 200.8817 159.1865 14.97082623212152
ITASAT 1                
1 43786U 18099AE  22296.13372155  .00003788  00000+0  33234-3 0  9996
2 43786  97.6109   0.1052 0014323 192.9663 167.1193 14.97137072212159
JY1SAT (JO-97)          
1 43803U 18099AX  22295.83691408  .00003452  00000+0  29843-3 0  9996
2 43803  97.6061 359.6177 0014271 196.3673 163.7091 14.97770563212132
UWE-4                   
1 43880U 18111E   22296.47798172  .00004358  00000+0  36495-3 0  9990
2 43880  97.6557 200.5238 0009884 243.6428 116.3781 14.98910977206877
NEXUS (FO-99)           
1 43937U 19003F   22296.05207105  .00020806  00000+0  62912-3 0  9998
2 43937  97.1199 324.6097 0020541  60.6472 299.6819 15.34025342209512
PSAT2 (NO-104)          
1 44354U 19036R   22296.32881150  .00107231 -36576-5  67326-3 0  9992
2 44354  28.5229   2.3209 0170563 348.4474  11.2247 15.57683850184493
JAISAT-1                
1 44419U 19038F   22295.90402972  .00013450  00000+0  63278-3 0  9997
2 44419  97.6508 267.3196 0020351  55.5394 304.7759 15.19503205182394
DUCHIFAT-3              
1 44854U 19089C   22296.54024677  .00005232  00000+0  39699-3 0  9998
2 44854  36.9666  60.5462 0007089 189.0772 265.4469 15.02020611157191
CAS-6 (TIANQIN 1)       
1 44881U 19093C   22296.13711517  .00000793  00000+0  10667-3 0  9995
2 44881  97.8843  13.4661 0016054 127.2717 232.9951 14.81883962153684
RS-44 & BREEZE-KM R/B   
1 44909U 19096E   22295.86269884  .00000037  00000+0  10190-3 0  9995
2 44909  82.5194 145.6523 0217867  22.0844 338.9469 12.79716063131801
ORBITAL FACTORY 2 (OF-2)
1 45113U 19071C   22295.88357592  .00054540  00000+0  84568-3 0  9990
2 45113  51.6342 149.3516 0008585 264.3931  95.6080 15.53425278153122
HUSKYSAT-1 (HO-107)     
1 45119U 19071J   22295.87091045  .00045720  00000+0  76563-3 0  9999
2 45119  51.6350 150.7324 0008570 262.4153  97.5863 15.51360152153092
BY70-2                  
1 45857U 20042B   22296.16271843  .00009003  00000+0  11524-2 0  9996
2 45857  97.9472  11.8610 0010480  68.6946 291.4918 14.81520578124358
SALSAT                  
1 46495U 20068K   22295.83846351  .00003072  00000+0  21973-3 0  9998
2 46495  97.7410 237.2800 0015493 199.2700 160.7942 15.05123674113345
BY70-3                  
1 46839U 20079N   22296.19136609  .00037560  00000+0  70324-3 0  9993
2 46839  97.1847   6.9995 0004661 214.5625 230.0142 15.48590813109969
RADFXSAT-2 (AO-109)     
1 47311U 21002C   22295.56351435  .00013285  00000+0  48974-3 0  9996
2 47311  60.6841 243.0720 0036388  57.6143 302.8459 15.27539672 97863
UVSQ-SAT                
1 47438U 21006AB  22295.70711768  .00008401  00000+0  42476-3 0  9990
2 47438  97.4234 352.1170 0011421 185.7432 174.3673 15.17240416 96563
DIY-1 (ARDUIQUBE)       
1 47963U 21022AH  22296.25985404  .00030702  00000+0  15044-2 0  9991
2 47963  97.5186 196.3682 0018150  57.0778 303.2199 15.17943516 86307
XW-3 (CAS-9)            
1 50466U 21131B   22296.22462030  .00000280  00000+0  10593-3 0  9999
2 50466  98.5725  13.3663 0005635 124.4847 235.6873 14.38554844 43287
TEVEL-3                 
1 50988U 22002E   22296.08197881  .00008892  00000+0  46272-3 0  9999
2 50988  97.4682   0.9743 0008652 350.3395  56.6819 15.16234451 42744
TEVEL-8                 
1 50989U 22002F   22296.42408627  .00008946  00000+0  46619-3 0  9996
2 50989  97.4706   1.3443 0008478 347.9255  73.1062 15.16186323 42790
TEVEL-5                 
1 50998U 22002Q   22296.40610119  .00009037  00000+0  46307-3 0  9991
2 50998  97.4677   1.4654 0010109 342.8602 145.8944 15.16761580 42808
TEVEL-6                 
1 50999U 22002R   22296.12331075  .00009088  00000+0  46568-3 0  9997
2 50999  97.4674   1.1850 0010087 343.7180  45.9450 15.16762006 42768
TEVEL-1                 
1 51013U 22002AF  22296.41820808  .00008864  00000+0  46164-3 0  9997
2 51013  97.4682   1.2769 0008295 348.3087  68.8516 15.16211407 42794
TEVEL-7                 
1 51062U 22002CG  22296.42499164  .00009033  00000+0  47071-3 0  9996
2 51062  97.4705   1.3284 0008479 347.7445  67.4620 15.16182453 42791
TEVEL-4                 
1 51063U 22002CH  22296.42627694  .00009010  00000+0  46972-3 0  9992
2 51063  97.4697   1.3234 0008303 348.2659  66.9289 15.16168506 42794
TEVEL-2                 
1 51069U 22002CP  22296.08218001  .00008947  00000+0  46566-3 0  9995
2 51069  97.4685   0.9581 0008570 350.1004  49.2834 15.16228906 42745
GREENCUBE               
1 53106U 22080B   22291.96147202 -.00000003  00000+0  00000+0 0  9996
2 53106  70.1713  43.5209 0008810 236.5247 123.4571  6.42557698  6253
YUZGU 9 (RS3S)          
1 53308U 98067TT  22296.51215941  .00077845  00000+0  94061-3 0  9991
2 53308  51.6384  58.1824 0005884 334.7787  25.2918 15.60008997 14669
YUZGU 7 (RS1S)          
1 53309U 98067TU  22296.50404020  .00080956  00000+0  96335-3 0  9992
2 53309  51.6380  58.1246 0006013 341.3515  18.7257 15.60392014 14616
YUZGU 11 (RS5S)         
1 53310U 98067TV  22296.51137175  .00077044  00000+0  93029-3 0  9990
2 53310  51.6383  58.1776 0005639 340.7765  19.3015 15.60033219 14643
YUZGU 12 (RS6S)         
1 53311U 98067TW  22296.49386507  .00079978  00000+0  94170-3 0  9999
2 53311  51.6381  58.0556 0006234 328.7646  31.2977 15.60671884 14661
TSIOLKOVSKY-RYAZAN 1 (*)
1 53312U 98067TX  22296.18200084  .00100669  00000+0  11965-2 0  9993
2 53312  51.6387  59.7276 0005990 342.8735  17.2055 15.60327017 14554
TSIOLKOVSKY-RYAZAN 2 (*)
1 53313U 98067TY  22296.43612100  .00077357  00000+0  92346-3 0  9998
2 53313  51.6388  58.4251 0005506 341.8404  18.2392 15.60331253 14642
YUZGU 10 (RS4S)         
1 53321U 98067TZ  22296.50953087  .00078143  00000+0  93719-3 0  9996
2 53321  51.6383  58.1651 0005883 337.7061  22.3676 15.60202840 14659
RS29S (SXC3-2110 CYCLO*)
1 53373U 22096D   22296.25696159  .00012514  00000+0  48848-3 0  9991
2 53373  97.4283 197.1894 0001167  55.5789  63.8567 15.26045926 11422
RS32S (SXC3-212 MONITO*)
1 53374U 22096E   22296.25220530  .00012418  00000+0  48311-3 0  9996
2 53374  97.4276 197.1954 0000958  77.9728  45.3079 15.26160230 11429
RS34S (SXC3-218 KUZBAS*)
1 53375U 22096F   22296.05715141  .00010156  00000+0  39865-3 0  9993
2 53375  97.4283 196.9952 0000688  78.3712  36.1155 15.25915856 11391
RS23S (SXC3-21 UTMN)    
1 53376U 22096G   22296.19386933  .00010261  00000+0  40221-3 0  9997
2 53376  97.4279 197.1353 0000757  96.4757  57.0039 15.25959476 11414
RS28S (SXC3-214 MIET-A*)
1 53377U 22096H   22296.19259615  .00010251  00000+0  40166-3 0  9991
2 53377  97.4283 197.1379 0000636  79.4925  74.1956 15.25972793 11417
RS26S (KAI-1)           
1 53378U 22096J   22296.25333270  .00008944  00000+0  35202-3 0  9990
2 53378  97.4287 197.1952 0000765 111.8060  11.0317 15.25861221 11428
RS19S (SXC3-219 ISOI)   
1 53381U 22096M   22296.42551045  .00010479  00000+0  40455-3 0  9997
2 53381  97.4277 197.4185 0004337 155.9258 317.7142 15.26451638 11452
RS21S (CUBESX-HSE-2)    
1 53383U 22096P   22296.42319426  .00010425  00000+0  40222-3 0  9997
2 53383  97.4287 197.4226 0004614 155.3657 317.7414 15.26472314 11452
RS30S (SXC3-217 SIREN)  
1 53384U 22096Q   22296.23432306  .00009531  00000+0  36859-3 0  9997
2 53384  97.4281 197.2335 0004585 157.4973 357.9192 15.26420426 11420
RS20S (GEOSCAN-EDELVEIS)
1 53385U 22096R   22296.41136477  .00012999  00000+0  49311-3 0  9997
2 53385  97.4282 197.4419 0004731 156.5519 329.6219 15.26979051 11481
RS33S (SXC3-215 VIZARD) 
1 53386U 22096S   22296.20313343  .00015783  00000+0  58801-3 0  9992
2 53386  97.4285 197.2729 0005652 160.0296 352.3748 15.27526849 11442
